KUIPER-00016            
1 63732U 25088J   26024.81448151  .00008797  00000+0  11738-2 0  9992
2 63732  51.9008 305.6025 0010848 283.2892  76.6860 14.80178370 40839
KUIPER-00018            
1 63733U 25088K   26023.47744397 -.00003375  00000+0 -41327-3 0  9992
2 63733  51.9032 300.4865 0009423 307.1486  52.8615 14.79932690 40794
KUIPER-00019            
1 63734U 25088L   26025.03173669  .00008122  00000+0  10931-2 0  9994
2 63734  51.8984 292.1509 0002219   8.2034 351.8964 14.79935357 41047
KUIPER-00020            
1 63735U 25088M   26024.75775749  .00008838  00000+0  11877-2 0  9994
2 63735  51.9009 297.3514 0006721 306.5969  53.4374 14.79889375 41153
KUIPER-00021            
1 63736U 25088N   26025.02629050  .00009160  00000+0  12239-2 0  9991
2 63736  51.9015 297.1625 0005204 299.8054  60.2390 14.80105887 41016
KUIPER-00023            
1 63737U 25088P   26025.02532610  .00009350  00000+0  12530-2 0  9992
2 63737  51.9006 298.6308 0009695 318.0811  41.9409 14.79935852 41292
KUIPER-00024            
1 63738U 25088Q   26024.70117586  .00007814  00000+0  10524-2 0  9992
2 63738  51.9028 287.6197 0001205 102.1193 257.9905 14.79950998 41541
KUIPER-00025            
1 63739U 25088R   26024.75895394  .00006446  00000+0  87454-3 0  9995
2 63739  51.9017 295.8751 0000619  94.2829 265.8205 14.79892226 41294
