<?xml version="1.0" encoding="UTF-8"?>
<ndm xmlns:xsi="http://www.w3.org/2001/XMLSchema-instance" xsi:noNamespaceSchemaLocation="https://sanaregistry.org/r/ndmxml_unqualified/ndmxml-2.0.0-master-2.0.xsd">
<omm id="CCSDS_OMM_VERS" version="2.0">
<header><CREATION_DATE/><ORIGINATOR/></header><body><segment><metadata><OBJECT_NAME>KUIPER-00016</OBJECT_NAME><OBJECT_ID>2025-088J</OBJECT_ID><CENTER_NAME>EARTH</CENTER_NAME><REF_FRAME>TEME</REF_FRAME><TIME_SYSTEM>UTC</TIME_SYSTEM><MEAN_ELEMENT_THEORY>SGP4</MEAN_ELEMENT_THEORY></metadata><data><meanElements><EPOCH>2026-01-24T19:32:51.202464</EPOCH><MEAN_MOTION>14.80178370</MEAN_MOTION><ECCENTRICITY>.00108488</ECCENTRICITY><INCLINATION>51.9008</INCLINATION><RA_OF_ASC_NODE>305.6025</RA_OF_ASC_NODE><ARG_OF_PERICENTER>283.2892</ARG_OF_PERICENTER><MEAN_ANOMALY>76.6860</MEAN_ANOMALY></meanElements><tleParameters><EPHEMERIS_TYPE>0</EPHEMERIS_TYPE><CLASSIFICATION_TYPE>U</CLASSIFICATION_TYPE><NORAD_CAT_ID>63732</NORAD_CAT_ID><ELEMENT_SET_NO>999</ELEMENT_SET_NO><REV_AT_EPOCH>4083</REV_AT_EPOCH><BSTAR>.11738086E-2</BSTAR><MEAN_MOTION_DOT>.8797E-4</MEAN_MOTION_DOT><MEAN_MOTION_DDOT>0</MEAN_MOTION_DDOT></tleParameters></data></segment></body></omm>
<omm id="CCSDS_OMM_VERS" version="2.0">
<header><CREATION_DATE/><ORIGINATOR/></header><body><segment><metadata><OBJECT_NAME>KUIPER-00018</OBJECT_NAME><OBJECT_ID>2025-088K</OBJECT_ID><CENTER_NAME>EARTH</CENTER_NAME><REF_FRAME>TEME</REF_FRAME><TIME_SYSTEM>UTC</TIME_SYSTEM><MEAN_ELEMENT_THEORY>SGP4</MEAN_ELEMENT_THEORY></metadata><data><meanElements><EPOCH>2026-01-23T11:27:31.159008</EPOCH><MEAN_MOTION>14.79932690</MEAN_MOTION><ECCENTRICITY>.00094236</ECCENTRICITY><INCLINATION>51.9032</INCLINATION><RA_OF_ASC_NODE>300.4865</RA_OF_ASC_NODE><ARG_OF_PERICENTER>307.1486</ARG_OF_PERICENTER><MEAN_ANOMALY>52.8615</MEAN_ANOMALY></meanElements><tleParameters><EPHEMERIS_TYPE>0</EPHEMERIS_TYPE><CLASSIFICATION_TYPE>U</CLASSIFICATION_TYPE><NORAD_CAT_ID>63733</NORAD_CAT_ID><ELEMENT_SET_NO>999</ELEMENT_SET_NO><REV_AT_EPOCH>4079</REV_AT_EPOCH><BSTAR>-.41326767E-3</BSTAR><MEAN_MOTION_DOT>-.3375E-4</MEAN_MOTION_DOT><MEAN_MOTION_DDOT>0</MEAN_MOTION_DDOT></tleParameters></data></segment></body></omm>
<omm id="CCSDS_OMM_VERS" version="2.0">
<header><CREATION_DATE/><ORIGINATOR/></header><body><segment><metadata><OBJECT_NAME>KUIPER-00019</OBJECT_NAME><OBJECT_ID>2025-088L</OBJECT_ID><CENTER_NAME>EARTH</CENTER_NAME><REF_FRAME>TEME</REF_FRAME><TIME_SYSTEM>UTC</TIME_SYSTEM><MEAN_ELEMENT_THEORY>SGP4</MEAN_ELEMENT_THEORY></metadata><data><meanElements><EPOCH>2026-01-25T00:45:42.050016</EPOCH><MEAN_MOTION>14.79935357</MEAN_MOTION><ECCENTRICITY>.0002219</ECCENTRICITY><INCLINATION>51.8984</INCLINATION><RA_OF_ASC_NODE>292.1509</RA_OF_ASC_NODE><ARG_OF_PERICENTER>8.2034</ARG_OF_PERICENTER><MEAN_ANOMALY>351.8964</MEAN_ANOMALY></meanElements><tleParameters><EPHEMERIS_TYPE>0</EPHEMERIS_TYPE><CLASSIFICATION_TYPE>U</CLASSIFICATION_TYPE><NORAD_CAT_ID>63734</NORAD_CAT_ID><ELEMENT_SET_NO>999</ELEMENT_SET_NO><REV_AT_EPOCH>4104</REV_AT_EPOCH><BSTAR>.10931E-2</BSTAR><MEAN_MOTION_DOT>.8122E-4</MEAN_MOTION_DOT><MEAN_MOTION_DDOT>0</MEAN_MOTION_DDOT></tleParameters></data></segment></body></omm>
<omm id="CCSDS_OMM_VERS" version="2.0">
<header><CREATION_DATE/><ORIGINATOR/></header><body><segment><metadata><OBJECT_NAME>KUIPER-00020</OBJECT_NAME><OBJECT_ID>2025-088M</OBJECT_ID><CENTER_NAME>EARTH</CENTER_NAME><REF_FRAME>TEME</REF_FRAME><TIME_SYSTEM>UTC</TIME_SYSTEM><MEAN_ELEMENT_THEORY>SGP4</MEAN_ELEMENT_THEORY></metadata><data><meanElements><EPOCH>2026-01-24T18:11:10.247136</EPOCH><MEAN_MOTION>14.79889375</MEAN_MOTION><ECCENTRICITY>.00067218</ECCENTRICITY><INCLINATION>51.9009</INCLINATION><RA_OF_ASC_NODE>297.3514</RA_OF_ASC_NODE><ARG_OF_PERICENTER>306.5969</ARG_OF_PERICENTER><MEAN_ANOMALY>53.4374</MEAN_ANOMALY></meanElements><tleParameters><EPHEMERIS_TYPE>0</EPHEMERIS_TYPE><CLASSIFICATION_TYPE>U</CLASSIFICATION_TYPE><NORAD_CAT_ID>63735</NORAD_CAT_ID><ELEMENT_SET_NO>999</ELEMENT_SET_NO><REV_AT_EPOCH>4115</REV_AT_EPOCH><BSTAR>.11877386E-2</BSTAR><MEAN_MOTION_DOT>.8838E-4</MEAN_MOTION_DOT><MEAN_MOTION_DDOT>0</MEAN_MOTION_DDOT></tleParameters></data></segment></body></omm>
<omm id="CCSDS_OMM_VERS" version="2.0">
<header><CREATION_DATE/><ORIGINATOR/></header><body><segment><metadata><OBJECT_NAME>KUIPER-00021</OBJECT_NAME><OBJECT_ID>2025-088N</OBJECT_ID><CENTER_NAME>EARTH</CENTER_NAME><REF_FRAME>TEME</REF_FRAME><TIME_SYSTEM>UTC</TIME_SYSTEM><MEAN_ELEMENT_THEORY>SGP4</MEAN_ELEMENT_THEORY></metadata><data><meanElements><EPOCH>2026-01-25T00:37:51.499200</EPOCH><MEAN_MOTION>14.80105887</MEAN_MOTION><ECCENTRICITY>.0005204</ECCENTRICITY><INCLINATION>51.9015</INCLINATION><RA_OF_ASC_NODE>297.1625</RA_OF_ASC_NODE><ARG_OF_PERICENTER>299.8054</ARG_OF_PERICENTER><MEAN_ANOMALY>60.2390</MEAN_ANOMALY></meanElements><tleParameters><EPHEMERIS_TYPE>0</EPHEMERIS_TYPE><CLASSIFICATION_TYPE>U</CLASSIFICATION_TYPE><NORAD_CAT_ID>63736</NORAD_CAT_ID><ELEMENT_SET_NO>999</ELEMENT_SET_NO><REV_AT_EPOCH>4101</REV_AT_EPOCH><BSTAR>.12239E-2</BSTAR><MEAN_MOTION_DOT>.916E-4</MEAN_MOTION_DOT><MEAN_MOTION_DDOT>0</MEAN_MOTION_DDOT></tleParameters></data></segment></body></omm>
<omm id="CCSDS_OMM_VERS" version="2.0">
<header><CREATION_DATE/><ORIGINATOR/></header><body><segment><metadata><OBJECT_NAME>KUIPER-00023</OBJECT_NAME><OBJECT_ID>2025-088P</OBJECT_ID><CENTER_NAME>EARTH</CENTER_NAME><REF_FRAME>TEME</REF_FRAME><TIME_SYSTEM>UTC</TIME_SYSTEM><MEAN_ELEMENT_THEORY>SGP4</MEAN_ELEMENT_THEORY></metadata><data><meanElements><EPOCH>2026-01-25T00:36:28.175040</EPOCH><MEAN_MOTION>14.79935852</MEAN_MOTION><ECCENTRICITY>.0009695</ECCENTRICITY><INCLINATION>51.9006</INCLINATION><RA_OF_ASC_NODE>298.6308</RA_OF_ASC_NODE><ARG_OF_PERICENTER>318.0811</ARG_OF_PERICENTER><MEAN_ANOMALY>41.9409</MEAN_ANOMALY></meanElements><tleParameters><EPHEMERIS_TYPE>0</EPHEMERIS_TYPE><CLASSIFICATION_TYPE>U</CLASSIFICATION_TYPE><NORAD_CAT_ID>63737</NORAD_CAT_ID><ELEMENT_SET_NO>999</ELEMENT_SET_NO><REV_AT_EPOCH>4129</REV_AT_EPOCH><BSTAR>.1253E-2</BSTAR><MEAN_MOTION_DOT>.935E-4</MEAN_MOTION_DOT><MEAN_MOTION_DDOT>0</MEAN_MOTION_DDOT></tleParameters></data></segment></body></omm>
<omm id="CCSDS_OMM_VERS" version="2.0">
<header><CREATION_DATE/><ORIGINATOR/></header><body><segment><metadata><OBJECT_NAME>KUIPER-00024</OBJECT_NAME><OBJECT_ID>2025-088Q</OBJECT_ID><CENTER_NAME>EARTH</CENTER_NAME><REF_FRAME>TEME</REF_FRAME><TIME_SYSTEM>UTC</TIME_SYSTEM><MEAN_ELEMENT_THEORY>SGP4</MEAN_ELEMENT_THEORY></metadata><data><meanElements><EPOCH>2026-01-24T16:49:41.594304</EPOCH><MEAN_MOTION>14.79950998</MEAN_MOTION><ECCENTRICITY>.00012053</ECCENTRICITY><INCLINATION>51.9028</INCLINATION><RA_OF_ASC_NODE>287.6197</RA_OF_ASC_NODE><ARG_OF_PERICENTER>102.1193</ARG_OF_PERICENTER><MEAN_ANOMALY>257.9905</MEAN_ANOMALY></meanElements><tleParameters><EPHEMERIS_TYPE>0</EPHEMERIS_TYPE><CLASSIFICATION_TYPE>U</CLASSIFICATION_TYPE><NORAD_CAT_ID>63738</NORAD_CAT_ID><ELEMENT_SET_NO>999</ELEMENT_SET_NO><REV_AT_EPOCH>4154</REV_AT_EPOCH><BSTAR>.10523612E-2</BSTAR><MEAN_MOTION_DOT>.7814E-4</MEAN_MOTION_DOT><MEAN_MOTION_DDOT>0</MEAN_MOTION_DDOT></tleParameters></data></segment></body></omm>
<omm id="CCSDS_OMM_VERS" version="2.0">
<header><CREATION_DATE/><ORIGINATOR/></header><body><segment><metadata><OBJECT_NAME>KUIPER-00025</OBJECT_NAME><OBJECT_ID>2025-088R</OBJECT_ID><CENTER_NAME>EARTH</CENTER_NAME><REF_FRAME>TEME</REF_FRAME><TIME_SYSTEM>UTC</TIME_SYSTEM><MEAN_ELEMENT_THEORY>SGP4</MEAN_ELEMENT_THEORY></metadata><data><meanElements><EPOCH>2026-01-24T18:12:53.620416</EPOCH><MEAN_MOTION>14.79892226</MEAN_MOTION><ECCENTRICITY>.00006194</ECCENTRICITY><INCLINATION>51.9017</INCLINATION><RA_OF_ASC_NODE>295.8751</RA_OF_ASC_NODE><ARG_OF_PERICENTER>94.2829</ARG_OF_PERICENTER><MEAN_ANOMALY>265.8205</MEAN_ANOMALY></meanElements><tleParameters><EPHEMERIS_TYPE>0</EPHEMERIS_TYPE><CLASSIFICATION_TYPE>U</CLASSIFICATION_TYPE><NORAD_CAT_ID>63739</NORAD_CAT_ID><ELEMENT_SET_NO>999</ELEMENT_SET_NO><REV_AT_EPOCH>4129</REV_AT_EPOCH><BSTAR>.87454327E-3</BSTAR><MEAN_MOTION_DOT>.6446E-4</MEAN_MOTION_DOT><MEAN_MOTION_DDOT>0</MEAN_MOTION_DDOT></tleParameters></data></segment></body></omm>

</ndm>
